[{"OBJECT_NAME":"STARLINK-30952","OBJECT_ID":"2023-180D","EPOCH":"2026-03-09T22:00:01.999584","MEAN_MOTION":15.27552863,"ECCENTRICITY":0.00014558,"INCLINATION":43.0047,"RA_OF_ASC_NODE":51.3804,"ARG_OF_PERICENTER":267.9266,"MEAN_ANOMALY":301.2059,"EPHEMERIS_TYPE":0,"CLASSIFICATION_TYPE":"U","NORAD_CAT_ID":58405,"ELEMENT_SET_NO":999,"REV_AT_EPOCH":573,"BSTAR":0.0015252634,"MEAN_MOTION_DOT":0.00041914,"MEAN_MOTION_DDOT":0},{"OBJECT_NAME":"OBJECT C","OBJECT_ID":"2024-092C","EPOCH":"2026-03-09T23:10:26.961312","MEAN_MOTION":15.27308901,"ECCENTRICITY":0.00097974,"INCLINATION":97.6475,"RA_OF_ASC_NODE":197.1606,"ARG_OF_PERICENTER":169.1353,"MEAN_ANOMALY":191.0098,"EPHEMERIS_TYPE":0,"CLASSIFICATION_TYPE":"U","NORAD_CAT_ID":59775,"ELEMENT_SET_NO":999,"REV_AT_EPOCH":10042,"BSTAR":0.00057925748,"MEAN_MOTION_DOT":0.00015454,"MEAN_MOTION_DDOT":0}]
